start=new Date('2023-03-06T00:00:00.000Z').valueOf();
sats=[{"EPHEMERIS_TYPE":"0","PERIOD":"95.438","MEAN_ANOMALY":"275.1419","RCS_SIZE":"LARGE","MEAN_MOTION_DDOT":"0.0000000000000","SITE":"AFWTR","CLASSIFICATION_TYPE":"U","BSTAR":"-0.00008358000000","TIME_SYSTEM":"UTC","TLE_LINE2":"2 50178  53.2164 148.4621 0000992  84.9687 275.1419 15.08834574 70531","OBJECT_TYPE":"PAYLOAD","ARG_OF_PERICENTER":"84.9687","ELEMENT_SET_NO":"999","REV_AT_EPOCH":"7053","MEAN_MOTION_DOT":"-0.00001617","MEAN_ELEMENT_THEORY":"SGP4","SEMIMAJOR_AXIS":"6917.897","DECAY_DATE":null,"ECCENTRICITY":"0.00009920","TLE_LINE1":"1 50178U 21125Y   23064.41098275 -.00001617  00000-0 -83580-4 0  9998","EPOCH":"2023-03-05T09:51:48.909600","REF_FRAME":"TEME","APOAPSIS":"540.448","FILE":"3852256","OBJECT_ID":"2021-125Y","NORAD_CAT_ID":"50178","CENTER_NAME":"EARTH","PERIAPSIS":"539.076","INCLINATION":"53.2164","GP_ID":"227583423","OBJECT_NAME":"STARLINK-3284","RA_OF_ASC_NODE":"148.4621","LAUNCH_DATE":"2021-12-18","MEAN_MOTION":"15.08834574","COUNTRY_CODE":"US"},{"TLE_LINE1":"1 50179U 21125Z   23064.37785542  .00037238  00000-0  23452-2 0  9990","ECCENTRICITY":"0.00011870","OBJECT_ID":"2021-125Z","FILE":"3851909","APOAPSIS":"540.554","EPOCH":"2023-03-05T09:04:06.708288","REF_FRAME":"TEME","MEAN_MOTION_DOT":"0.00037238","DECAY_DATE":null,"MEAN_ELEMENT_THEORY":"SGP4","SEMIMAJOR_AXIS":"6917.868","OBJECT_NAME":"STARLINK-3283","MEAN_MOTION":"15.08844162","COUNTRY_CODE":"US","LAUNCH_DATE":"2021-12-18","RA_OF_ASC_NODE":"148.6134","CENTER_NAME":"EARTH","NORAD_CAT_ID":"50179","GP_ID":"227524779","INCLINATION":"53.2148","PERIAPSIS":"538.912","MEAN_MOTION_DDOT":"0.0000000000000","CLASSIFICATION_TYPE":"U","SITE":"AFWTR","MEAN_ANOMALY":"241.5752","PERIOD":"95.437","EPHEMERIS_TYPE":"0","RCS_SIZE":"LARGE","REV_AT_EPOCH":"7000","ELEMENT_SET_NO":"999","TIME_SYSTEM":"UTC","TLE_LINE2":"2 50179  53.2148 148.6134 0001187 118.5360 241.5752 15.08844162 70007","OBJECT_TYPE":"PAYLOAD","ARG_OF_PERICENTER":"118.5360","BSTAR":"0.00234520000000"},{"MEAN_MOTION_DDOT":"0.0000000000000","CLASSIFICATION_TYPE":"U","SITE":"AFWTR","MEAN_ANOMALY":"251.2466","PERIOD":"95.437","EPHEMERIS_TYPE":"0","RCS_SIZE":"LARGE","REV_AT_EPOCH":"7047","ELEMENT_SET_NO":"999","TLE_LINE2":"2 50180  53.2157 150.4674 0001058 108.8641 251.2466 15.08851347 70474","OBJECT_TYPE":"PAYLOAD","ARG_OF_PERICENTER":"108.8641","TIME_SYSTEM":"UTC","BSTAR":"0.00111170000000","ECCENTRICITY":"0.00010580","TLE_LINE1":"1 50180U 21125AA  23063.96664562  .00017454  00000-0  11117-2 0  9997","OBJECT_ID":"2021-125AA","FILE":"3851939","APOAPSIS":"540.443","EPOCH":"2023-03-04T23:11:58.181568","REF_FRAME":"TEME","MEAN_MOTION_DOT":"0.00017454","DECAY_DATE":null,"SEMIMAJOR_AXIS":"6917.846","MEAN_ELEMENT_THEORY":"SGP4","OBJECT_NAME":"STARLINK-3265","COUNTRY_CODE":"US","MEAN_MOTION":"15.08851347","LAUNCH_DATE":"2021-12-18","RA_OF_ASC_NODE":"150.4674","CENTER_NAME":"EARTH","NORAD_CAT_ID":"50180","GP_ID":"227548007","INCLINATION":"53.2157","PERIAPSIS":"538.979"},{"BSTAR":"0.00106370000000","ELEMENT_SET_NO":"999","TIME_SYSTEM":"UTC","TLE_LINE2":"2 50181  53.2160 150.5025 0001537  94.5497 265.5671 15.08848586 70435","OBJECT_TYPE":"PAYLOAD","ARG_OF_PERICENTER":"94.5497","REV_AT_EPOCH":"7043","EPHEMERIS_TYPE":"0","PERIOD":"95.437","MEAN_ANOMALY":"265.5671","RCS_SIZE":"LARGE","MEAN_MOTION_DDOT":"0.0000000000000","CLASSIFICATION_TYPE":"U","SITE":"AFWTR","NORAD_CAT_ID":"50181","CENTER_NAME":"EARTH","PERIAPSIS":"538.656","GP_ID":"227549250","INCLINATION":"53.2160","OBJECT_NAME":"STARLINK-3285","RA_OF_ASC_NODE":"150.5025","COUNTRY_CODE":"US","MEAN_MOTION":"15.08848586","LAUNCH_DATE":"2021-12-18","MEAN_MOTION_DOT":"0.00016685","SEMIMAJOR_AXIS":"6917.854","MEAN_ELEMENT_THEORY":"SGP4","DECAY_DATE":null,"ECCENTRICITY":"0.00015370","TLE_LINE1":"1 50181U 21125AB  23063.95928912  .00016685  00000-0  10637-2 0  9990","APOAPSIS":"540.782","EPOCH":"2023-03-04T23:01:22.579968","REF_FRAME":"TEME","OBJECT_ID":"2021-125AB","FILE":"3851939"},{"MEAN_ELEMENT_THEORY":"SGP4","SEMIMAJOR_AXIS":"6917.852","DECAY_DATE":null,"MEAN_MOTION_DOT":"0.00000063","APOAPSIS":"540.770","EPOCH":"2023-03-04T22:49:23.547936","REF_FRAME":"TEME","OBJECT_ID":"2021-125AC","FILE":"3851939","TLE_LINE1":"1 50182U 21125AC  23063.95096699  .00000063  00000-0  22053-4 0  9999","ECCENTRICITY":"0.00015220","PERIAPSIS":"538.664","GP_ID":"227549004","INCLINATION":"53.2166","NORAD_CAT_ID":"50182","CENTER_NAME":"EARTH","RA_OF_ASC_NODE":"150.5219","COUNTRY_CODE":"US","MEAN_MOTION":"15.08849414","LAUNCH_DATE":"2021-12-18","OBJECT_NAME":"STARLINK-3277","RCS_SIZE":"LARGE","EPHEMERIS_TYPE":"0","PERIOD":"95.437","MEAN_ANOMALY":"278.1518","CLASSIFICATION_TYPE":"U","SITE":"AFWTR","MEAN_MOTION_DDOT":"0.0000000000000","BSTAR":"0.00002205300000","ELEMENT_SET_NO":"999","TLE_LINE2":"2 50182  53.2166 150.5219 0001522  81.9647 278.1518 15.08849414 70462","TIME_SYSTEM":"UTC","OBJECT_TYPE":"PAYLOAD","ARG_OF_PERICENTER":"81.9647","REV_AT_EPOCH":"7046"},{"EPHEMERIS_TYPE":"0","PERIOD":"95.438","MEAN_ANOMALY":"329.6272","RCS_SIZE":"LARGE","MEAN_MOTION_DDOT":"0.0000000000000","CLASSIFICATION_TYPE":"U","SITE":"AFWTR","BSTAR":"0.00087395000000","ELEMENT_SET_NO":"999","ARG_OF_PERICENTER":"30.4811","TLE_LINE2":"2 50183  53.2151 146.9433 0001564  30.4811 329.6272 15.08828909 70591","OBJECT_TYPE":"PAYLOAD","TIME_SYSTEM":"UTC","REV_AT_EPOCH":"7059","MEAN_MOTION_DOT":"0.00013644","SEMIMAJOR_AXIS":"6917.914","MEAN_ELEMENT_THEORY":"SGP4","DECAY_DATE":null,"ECCENTRICITY":"0.00015640","TLE_LINE1":"1 50183U 21125AD  23064.74944052  .00013644  00000-0  87395-3 0  9991","APOAPSIS":"540.861","EPOCH":"2023-03-05T17:59:11.660928","REF_FRAME":"TEME","OBJECT_ID":"2021-125AD","FILE":"3852256","NORAD_CAT_ID":"50183","CENTER_NAME":"EARTH","PERIAPSIS":"538.697","GP_ID":"227583661","INCLINATION":"53.2151","OBJECT_NAME":"STARLINK-3281","RA_OF_ASC_NODE":"146.9433","MEAN_MOTION":"15.08828909","COUNTRY_CODE":"US","LAUNCH_DATE":"2021-12-18"},{"INCLINATION":"53.2164","GP_ID":"227581951","PERIAPSIS":"538.663","CENTER_NAME":"EARTH","NORAD_CAT_ID":"50185","LAUNCH_DATE":"2021-12-18","MEAN_MOTION":"15.08866199","COUNTRY_CODE":"US","RA_OF_ASC_NODE":"147.5030","OBJECT_NAME":"STARLINK-3279","DECAY_DATE":null,"SEMIMAJOR_AXIS":"6917.800","MEAN_ELEMENT_THEORY":"SGP4","MEAN_MOTION_DOT":"0.00058423","FILE":"3852256","OBJECT_ID":"2021-125AF","EPOCH":"2023-03-05T14:59:09.290112","REF_FRAME":"TEME","APOAPSIS":"540.668","TLE_LINE1":"1 50185U 21125AF  23064.62441308  .00058423  00000-0  36561-2 0  9998","ECCENTRICITY":"0.00014490","BSTAR":"0.00365610000000","REV_AT_EPOCH":"7053","TIME_SYSTEM":"UTC","TLE_LINE2":"2 50185  53.2164 147.5030 0001449 117.0618 243.0522 15.08866199 70530","OBJECT_TYPE":"PAYLOAD","ARG_OF_PERICENTER":"117.0618","ELEMENT_SET_NO":"999","RCS_SIZE":"LARGE","MEAN_ANOMALY":"243.0522","PERIOD":"95.436","EPHEMERIS_TYPE":"0","SITE":"AFWTR","CLASSIFICATION_TYPE":"U","MEAN_MOTION_DDOT":"0.0000000000000"},{"OBJECT_NAME":"STARLINK-3274","LAUNCH_DATE":"2021-12-18","MEAN_MOTION":"15.08872246","COUNTRY_CODE":"US","RA_OF_ASC_NODE":"156.5538","CENTER_NAME":"EARTH","NORAD_CAT_ID":"50186","INCLINATION":"53.2151","GP_ID":"227582201","PERIAPSIS":"539.398","ECCENTRICITY":"0.00003590","TLE_LINE1":"1 50186U 21125AG  23064.83693793  .00046734  00000-0  29325-2 0  9991","FILE":"3852256","OBJECT_ID":"2021-125AG","EPOCH":"2023-03-05T20:05:11.437152","REF_FRAME":"TEME","APOAPSIS":"539.895","MEAN_MOTION_DOT":"0.00046734","DECAY_DATE":null,"MEAN_ELEMENT_THEORY":"SGP4","SEMIMAJOR_AXIS":"6917.782","REV_AT_EPOCH":"7041","ARG_OF_PERICENTER":"76.1146","TLE_LINE2":"2 50186  53.2151 156.5538 0000359  76.1146 283.9886 15.08872246 70413","OBJECT_TYPE":"PAYLOAD","TIME_SYSTEM":"UTC","ELEMENT_SET_NO":"999","BSTAR":"0.00293250000000","MEAN_MOTION_DDOT":"0.0000000000000","SITE":"AFWTR","CLASSIFICATION_TYPE":"U","MEAN_ANOMALY":"283.9886","EPHEMERIS_TYPE":"0","PERIOD":"95.436","RCS_SIZE":"LARGE"},{"COUNTRY_CODE":"US","MEAN_MOTION":"15.08851499","LAUNCH_DATE":"2021-12-18","RA_OF_ASC_NODE":"136.1293","OBJECT_NAME":"STARLINK-3272","GP_ID":"227583424","INCLINATION":"53.2168","PERIAPSIS":"538.996","CENTER_NAME":"EARTH","NORAD_CAT_ID":"50187","OBJECT_ID":"2021-125AH","FILE":"3852256","APOAPSIS":"540.424","EPOCH":"2023-03-05T22:20:19.103424","REF_FRAME":"TEME","ECCENTRICITY":"0.00010320","TLE_LINE1":"1 50187U 21125AH  23064.93077666  .00025872  00000-0  16372-2 0  9996","DECAY_DATE":null,"SEMIMAJOR_AXIS":"6917.845","MEAN_ELEMENT_THEORY":"SGP4","MEAN_MOTION_DOT":"0.00025872","REV_AT_EPOCH":"7069","ELEMENT_SET_NO":"999","OBJECT_TYPE":"PAYLOAD","TLE_LINE2":"2 50187  53.2168 136.1293 0001032 105.7163 254.3943 15.08851499 70694","TIME_SYSTEM":"UTC","ARG_OF_PERICENTER":"105.7163","BSTAR":"0.00163720000000","CLASSIFICATION_TYPE":"U","SITE":"AFWTR","MEAN_MOTION_DDOT":"0.0000000000000","RCS_SIZE":"LARGE","MEAN_ANOMALY":"254.3943","EPHEMERIS_TYPE":"0","PERIOD":"95.437"},{"OBJECT_NAME":"STARLINK-3275","RA_OF_ASC_NODE":"137.1437","LAUNCH_DATE":"2021-12-18","MEAN_MOTION":"15.14420825","COUNTRY_CODE":"US","NORAD_CAT_ID":"50188","CENTER_NAME":"EARTH","PERIAPSIS":"521.368","INCLINATION":"53.2174","GP_ID":"227583184","ECCENTRICITY":"0.00019870","TLE_LINE1":"1 50188U 21125AJ  23064.41106726  .00077216  00000-0  41265-2 0  9998","EPOCH":"2023-03-05T09:51:56.211264","REF_FRAME":"TEME","APOAPSIS":"524.111","FILE":"3852256","OBJECT_ID":"2021-125AJ","MEAN_MOTION_DOT":"0.00077216","SEMIMAJOR_AXIS":"6900.874","MEAN_ELEMENT_THEORY":"SGP4","DECAY_DATE":null,"TLE_LINE2":"2 50188  53.2174 137.1437 0001987 337.6113  22.4794 15.14420825 70693","TIME_SYSTEM":"UTC","OBJECT_TYPE":"PAYLOAD","ARG_OF_PERICENTER":"337.6113","ELEMENT_SET_NO":"999","REV_AT_EPOCH":"7069","BSTAR":"0.00412650000000","MEAN_MOTION_DDOT":"0.0000000000000","SITE":"AFWTR","CLASSIFICATION_TYPE":"U","PERIOD":"95.086","EPHEMERIS_TYPE":"0","MEAN_ANOMALY":"22.4794","RCS_SIZE":"LARGE"}];
